QIANFAN-81              
1 63167U 25046J   25223.91288761  .00000159  00000+0  22797-3 0  9990
2 63167  88.9864 332.5330 0016719 115.2374 245.0512 13.50962947 30901
QIANFAN-82              
1 63168U 25046K   25223.87161756  .00000166  00000+0  23755-3 0  9993
2 63168  88.9864 332.5806 0014814 122.1488 238.1103 13.50959829 30888
QIANFAN-83              
1 63169U 25046L   25223.93415774  .00000193  00000+0  23481-3 0  9999
2 63169  88.9864 332.5911 0016166 114.9379 245.3460 13.61934597 30889
QIANFAN-84              
1 63170U 25046M   25223.90043872  .00000166  00000+0  23777-3 0  9992
2 63170  88.9864 332.7108 0017806 119.1294 241.1642 13.50967001 30819
QIANFAN-85              
1 63171U 25046N   25223.89642025  .00000161  00000+0  23078-3 0  9995
2 63171  88.9864 332.5834 0015169 121.1747 239.0893 13.50960874 30882
QIANFAN-86              
1 63172U 25046P   25223.90464490  .00000163  00000+0  23368-3 0  9990
2 63172  88.9866 332.4419 0013021 124.5774 235.6607 13.50961283 30964
QIANFAN-87              
1 63173U 25046Q   25223.94981488  .00000158  00000+0  22531-3 0  9991
2 63173  88.9862 332.5535 0013773 120.1707 240.0810 13.50957854 30902
QIANFAN-88              
1 63174U 25046R   25223.89236338  .00000170  00000+0  24475-3 0  9996
2 63174  88.9865 332.5110 0014079 127.3396 232.9040 13.50965362 30928
